ONEWEB-0331             
1 49198U 21083N   25118.78689790  .00000044  00000+0  79128-4 0  9994
2 49198  87.9137  57.8169 0002271  84.5617 275.5774 13.18695725175396
ONEWEB-0333             
1 49199U 21083P   25118.73403898 -.00000256  00000+0 -73485-3 0  9999
2 49199  87.8995  42.6307 0001865  78.2344 281.8995 13.13468240176503
ONEWEB-0334             
1 49200U 21083Q   25118.60137441  .00000076  00000+0  15467-3 0  9990
2 49200  87.9298 357.0243 0001242  46.8039 313.3197 13.20771326182069
ONEWEB-0335             
1 49201U 21083R   25118.80514304 -.00000502  00000+0 -14084-2 0  9999
2 49201  87.8995  42.6046 0002172  79.9082 280.2292 13.13469652176529
ONEWEB-0336             
1 49202U 21083S   25119.08108998  .00000394  00000+0  10435-2 0  9992
2 49202  87.8993  42.5437 0001976  75.0258 285.1090 13.13470754177856
ONEWEB-0337             
1 49203U 21083T   25118.78639148  .00000222  00000+0  57207-3 0  9994
2 49203  87.8996  42.6012 0001975  83.0348 277.1005 13.13467928176516
ONEWEB-0338             
1 49204U 21083U   25118.65188862  .00000020  00000+0  17620-4 0  9995
2 49204  87.9303 357.0011 0001491  75.8573 284.2726 13.20771624182092
ONEWEB-0339             
1 49205U 21083V   25118.71881037 -.00000018  00000+0 -85089-4 0  9990
2 49205  87.8994  42.6029 0001788  81.5519 278.5813 13.13467865176487
